STARLINK-2385
1 47804U 21018T   26061.16668981  .01117252  00000+0  45669-1 0  9994
2 47804  53.1184 264.8771 0001168  73.9475 299.4746 15.21187770  5828
